{
    "links": {
        "self": "http://www.neowsapp.com/rest/v1/neo/3550614?api_key=iIulBulltgU6a56xZRHN4H3l9WmuAYTsLGpBGhQ2"
    },
    "id": "3550614",
    "neo_reference_id": "3550614",
    "name": "(2010 VV21)",
    "designation": "2010 VV21",
    "nasa_jpl_url": "http://ssd.jpl.nasa.gov/sbdb.cgi?sstr=3550614",
    "absolute_magnitude_h": 23.1,
    "estimated_diameter": {
        "kilometers": {
            "estimated_diameter_min": 0.063760979,
            "estimated_diameter_max": 0.1425738833
        },
        "meters": {
            "estimated_diameter_min": 63.7609789875,
            "estimated_diameter_max": 142.5738833281
        },
        "miles": {
            "estimated_diameter_min": 0.0396192233,
            "estimated_diameter_max": 0.0885912765
        },
        "feet": {
            "estimated_diameter_min": 209.1895703015,
            "estimated_diameter_max": 467.7620993781
        }
    },
    "is_potentially_hazardous_asteroid": false,
    "close_approach_data": [
        {
            "close_approach_date": "2007-10-29",
            "close_approach_date_full": "2007-Oct-29 20:22",
            "epoch_date_close_approach": 1193689320000,
            "relative_velocity": {
                "kilometers_per_second": "3.5309054239",
                "kilometers_per_hour": "12711.2595260157",
                "miles_per_hour": "7898.2823427068"
            },
            "miss_distance": {
                "astronomical": "0.1872020136",
                "lunar": "72.8215832904",
                "kilometers": "28005022.494271032",
                "miles": "17401514.0590109616"
            },
            "orbiting_body": "Earth"
        },
        {
            "close_approach_date": "2010-10-30",
            "close_approach_date_full": "2010-Oct-30 05:38",
            "epoch_date_close_approach": 1288417080000,
            "relative_velocity": {
                "kilometers_per_second": "3.2986655219",
                "kilometers_per_hour": "11875.195879014",
                "miles_per_hour": "7378.7849060462"
            },
            "miss_distance": {
                "astronomical": "0.1720651597",
                "lunar": "66.9333471233",
                "kilometers": "25740581.392329839",
                "miles": "15994455.6044322182"
            },
            "orbiting_body": "Earth"
        },
        {
            "close_approach_date": "2013-10-30",
            "close_approach_date_full": "2013-Oct-30 22:01",
            "epoch_date_close_approach": 1383170460000,
            "relative_velocity": {
                "kilometers_per_second": "4.1232667268",
                "kilometers_per_hour": "14843.7602166374",
                "miles_per_hour": "9223.3353412767"
            },
            "miss_distance": {
                "astronomical": "0.2218631812",
                "lunar": "86.3047774868",
                "kilometers": "33190259.338944044",
                "miles": "20623470.8301700472"
            },
            "orbiting_body": "Earth"
        }
    ],
    "orbital_data": {
        "orbit_id": "15",
        "orbit_determination_date": "2017-04-06 08:55:52",
        "first_observation_date": "2010-11-06",
        "last_observation_date": "2010-11-29",
        "data_arc_in_days": 23,
        "observations_used": 48,
        "orbit_uncertainty": "7",
        "minimum_orbit_intersection": ".170416",
        "jupiter_tisserand_invariant": "3.646",
        "epoch_osculation": "2459000.5",
        "eccentricity": ".4393526224437085",
        "semi_major_axis": "2.071123757775483",
        "inclination": "1.359295136523046",
        "ascending_node_longitude": "97.56696794034893",
        "orbital_period": "1088.698194218866",
        "perihelion_distance": "1.161170103391356",
        "perihelion_argument": "301.3114251414806",
        "aphelion_distance": "2.98107741215961",
        "perihelion_time": "2458768.833665318627",
        "mean_anomaly": "76.60514266319079",
        "mean_motion": ".3306701544208013",
        "equinox": "J2000",
        "orbit_class": {
            "orbit_class_type": "AMO",
            "orbit_class_description": "Near-Earth asteroid orbits similar to that of 1221 Amor",
            "orbit_class_range": "1.017 AU < q (perihelion) < 1.3 AU"
        }
    },
    "is_sentry_object": false
}